start=new Date('2021-12-17T00:00:00.000Z').valueOf();
sats=[{"SEMIMAJOR_AXIS":"6925.373","RA_OF_ASC_NODE":"162.2047","OBJECT_TYPE":"PAYLOAD","NORAD_CAT_ID":"47667","MEAN_ELEMENT_THEORY":"SGP4","MEAN_MOTION_DOT":"0.00000522","MEAN_MOTION_DDOT":"0.0000000000000","SITE":"AFETR","MEAN_MOTION":"15.06391886","DECAY_DATE":null,"BSTAR":"0.00005393400000","OBJECT_NAME":"STARLINK-2058","ELEMENT_SET_NO":"999","REV_AT_EPOCH":"4727","MEAN_ANOMALY":"274.4025","INCLINATION":"53.0541","COUNTRY_CODE":"US","CLASSIFICATION_TYPE":"U","OBJECT_ID":"2021-012AZ","REF_FRAME":"TEME","TLE_LINE2":"2 47667  53.0541 162.2047 0002001  85.7192 274.4025 15.06391886 47278","EPHEMERIS_TYPE":"0","TLE_LINE1":"1 47667U 21012AZ  21350.84699808  .00000522  00000-0  53934-4 0  9996","FILE":"3242223","LAUNCH_DATE":"2021-02-16","PERIOD":"95.593","TIME_SYSTEM":"UTC","APOAPSIS":"548.624","RCS_SIZE":"LARGE","CENTER_NAME":"EARTH","GP_ID":"191860416","ECCENTRICITY":"0.00020010","ARG_OF_PERICENTER":"85.7192","EPOCH":"2021-12-16T20:19:40.634112","PERIAPSIS":"545.853"},{"OBJECT_TYPE":"PAYLOAD","MEAN_MOTION_DOT":"0.00000903","MEAN_ELEMENT_THEORY":"SGP4","NORAD_CAT_ID":"47668","RA_OF_ASC_NODE":"142.3140","SEMIMAJOR_AXIS":"6925.331","BSTAR":"0.00007954200000","OBJECT_NAME":"STARLINK-2059","MEAN_MOTION_DDOT":"0.0000000000000","DECAY_DATE":null,"SITE":"AFETR","MEAN_MOTION":"15.06405887","MEAN_ANOMALY":"263.4067","REV_AT_EPOCH":"4757","ELEMENT_SET_NO":"999","CLASSIFICATION_TYPE":"U","OBJECT_ID":"2021-012BA","REF_FRAME":"TEME","TLE_LINE2":"2 47668  53.0532 142.3140 0002127  96.7164 263.4067 15.06405887 47576","COUNTRY_CODE":"US","INCLINATION":"53.0532","LAUNCH_DATE":"2021-02-16","TLE_LINE1":"1 47668U 21012BA  21350.82302972  .00000903  00000-0  79542-4 0  9994","EPHEMERIS_TYPE":"0","FILE":"3242223","PERIOD":"95.592","CENTER_NAME":"EARTH","RCS_SIZE":"LARGE","APOAPSIS":"548.669","TIME_SYSTEM":"UTC","ECCENTRICITY":"0.00021270","GP_ID":"191861168","ARG_OF_PERICENTER":"96.7164","EPOCH":"2021-12-16T19:45:09.767808","PERIAPSIS":"545.722"},{"MEAN_ANOMALY":"62.2181","REV_AT_EPOCH":"359","ELEMENT_SET_NO":"999","OBJECT_ID":"2021-012BB","CLASSIFICATION_TYPE":"U","TLE_LINE2":"2 47669  53.0559  66.8775 0001496  83.8976  62.2181 15.06401974  3595","REF_FRAME":"TEME","COUNTRY_CODE":"US","INCLINATION":"53.0559","OBJECT_TYPE":"PAYLOAD","MEAN_MOTION_DOT":"-0.00024439","MEAN_ELEMENT_THEORY":"SGP4","NORAD_CAT_ID":"47669","RA_OF_ASC_NODE":"66.8775","SEMIMAJOR_AXIS":"6925.343","BSTAR":"-0.00162730000000","OBJECT_NAME":"STARLINK-2060","MEAN_MOTION_DDOT":"0.0000000000000","DECAY_DATE":null,"MEAN_MOTION":"15.06401974","SITE":"AFETR","ECCENTRICITY":"0.00014960","GP_ID":"191861918","EPOCH":"2021-12-16T22:00:01.999584","ARG_OF_PERICENTER":"83.8976","PERIAPSIS":"546.171","LAUNCH_DATE":"2021-02-16","TLE_LINE1":"1 47669U 21012BB  21350.91668981 -.00024439  00000-0 -16273-2 0  9992","FILE":"3242223","EPHEMERIS_TYPE":"0","PERIOD":"95.592","CENTER_NAME":"EARTH","RCS_SIZE":"MEDIUM","APOAPSIS":"548.244","TIME_SYSTEM":"UTC"},{"INCLINATION":"53.0544","COUNTRY_CODE":"US","CLASSIFICATION_TYPE":"U","OBJECT_ID":"2021-012BC","TLE_LINE2":"2 47670  53.0544 142.2276 0008028 115.9730 244.2086 15.06390214 47564","REF_FRAME":"TEME","ELEMENT_SET_NO":"999","REV_AT_EPOCH":"4756","MEAN_ANOMALY":"244.2086","MEAN_MOTION_DDOT":"0.0000000000000","MEAN_MOTION":"15.06390214","SITE":"AFETR","DECAY_DATE":null,"BSTAR":"0.00008557400000","OBJECT_NAME":"STARLINK-2062","SEMIMAJOR_AXIS":"6925.379","RA_OF_ASC_NODE":"142.2276","OBJECT_TYPE":"PAYLOAD","NORAD_CAT_ID":"47670","MEAN_ELEMENT_THEORY":"SGP4","MEAN_MOTION_DOT":"0.00000991","ARG_OF_PERICENTER":"115.9730","EPOCH":"2021-12-16T20:06:23.520672","PERIAPSIS":"541.684","ECCENTRICITY":"0.00080280","GP_ID":"191860666","TIME_SYSTEM":"UTC","RCS_SIZE":"LARGE","APOAPSIS":"552.803","CENTER_NAME":"EARTH","TLE_LINE1":"1 47670U 21012BC  21350.83777223  .00000991  00000-0  85574-4 0  9992","FILE":"3242223","EPHEMERIS_TYPE":"0","LAUNCH_DATE":"2021-02-16","PERIOD":"95.593"},{"ARG_OF_PERICENTER":"99.0227","EPOCH":"2021-12-16T18:04:18.145056","PERIAPSIS":"545.624","GP_ID":"191860916","ECCENTRICITY":"0.00022550","TIME_SYSTEM":"UTC","CENTER_NAME":"EARTH","RCS_SIZE":"LARGE","APOAPSIS":"548.747","LAUNCH_DATE":"2021-02-16","TLE_LINE1":"1 47671U 21012BD  21350.75298779  .00001099  00000-0  92693-4 0  9998","FILE":"3242223","EPHEMERIS_TYPE":"0","PERIOD":"95.592","COUNTRY_CODE":"US","INCLINATION":"53.0546","OBJECT_ID":"2021-012BD","CLASSIFICATION_TYPE":"U","TLE_LINE2":"2 47671  53.0546 142.6292 0002255  99.0227 261.1017 15.06409244 47564","REF_FRAME":"TEME","ELEMENT_SET_NO":"999","MEAN_ANOMALY":"261.1017","REV_AT_EPOCH":"4756","MEAN_MOTION_DDOT":"0.0000000000000","DECAY_DATE":null,"SITE":"AFETR","MEAN_MOTION":"15.06409244","BSTAR":"0.00009269300000","OBJECT_NAME":"STARLINK-2064","RA_OF_ASC_NODE":"142.6292","SEMIMAJOR_AXIS":"6925.320","OBJECT_TYPE":"PAYLOAD","MEAN_MOTION_DOT":"0.00001099","MEAN_ELEMENT_THEORY":"SGP4","NORAD_CAT_ID":"47671"},{"SEMIMAJOR_AXIS":"6925.325","RA_OF_ASC_NODE":"132.1101","OBJECT_TYPE":"PAYLOAD","NORAD_CAT_ID":"47672","MEAN_MOTION_DOT":"0.00001266","MEAN_ELEMENT_THEORY":"SGP4","MEAN_MOTION_DDOT":"0.0000000000000","MEAN_MOTION":"15.06407692","SITE":"AFETR","DECAY_DATE":null,"BSTAR":"0.00010390000000","OBJECT_NAME":"STARLINK-2065","ELEMENT_SET_NO":"999","REV_AT_EPOCH":"4769","MEAN_ANOMALY":"257.5671","INCLINATION":"53.0547","COUNTRY_CODE":"US","OBJECT_ID":"2021-012BE","CLASSIFICATION_TYPE":"U","REF_FRAME":"TEME","TLE_LINE2":"2 47672  53.0547 132.1101 0002922 102.5645 257.5671 15.06407692 47698","TLE_LINE1":"1 47672U 21012BE  21350.86450652  .00001266  00000-0  10390-3 0  9990","EPHEMERIS_TYPE":"0","FILE":"3242223","LAUNCH_DATE":"2021-02-16","PERIOD":"95.592","TIME_SYSTEM":"UTC","APOAPSIS":"549.214","RCS_SIZE":"LARGE","CENTER_NAME":"EARTH","ECCENTRICITY":"0.00029220","GP_ID":"191861668","EPOCH":"2021-12-16T20:44:53.363328","ARG_OF_PERICENTER":"102.5645","PERIAPSIS":"545.166"},{"APOAPSIS":"548.472","RCS_SIZE":"LARGE","CENTER_NAME":"EARTH","TIME_SYSTEM":"UTC","TLE_LINE1":"1 47673U 21012BF  21350.84144178 -.00000034  00000-0  16642-4 0  9992","FILE":"3242223","EPHEMERIS_TYPE":"0","LAUNCH_DATE":"2021-02-16","PERIOD":"95.592","EPOCH":"2021-12-16T20:11:40.569792","ARG_OF_PERICENTER":"96.9433","PERIAPSIS":"545.893","GP_ID":"191861419","ECCENTRICITY":"0.00018620","BSTAR":"0.00001664200000","OBJECT_NAME":"STARLINK-2066","MEAN_MOTION_DDOT":"0.0000000000000","MEAN_MOTION":"15.06410010","SITE":"AFETR","DECAY_DATE":null,"OBJECT_TYPE":"PAYLOAD","NORAD_CAT_ID":"47673","MEAN_ELEMENT_THEORY":"SGP4","MEAN_MOTION_DOT":"-0.00000034","SEMIMAJOR_AXIS":"6925.318","RA_OF_ASC_NODE":"142.2173","CLASSIFICATION_TYPE":"U","OBJECT_ID":"2021-012BF","TLE_LINE2":"2 47673  53.0537 142.2173 0001862  96.9433 263.1768 15.06410010 47566","REF_FRAME":"TEME","INCLINATION":"53.0537","COUNTRY_CODE":"US","REV_AT_EPOCH":"4756","MEAN_ANOMALY":"263.1768","ELEMENT_SET_NO":"999"},{"GP_ID":"191860167","ECCENTRICITY":"0.00021450","PERIAPSIS":"545.731","EPOCH":"2021-12-16T20:32:54.435840","ARG_OF_PERICENTER":"93.0064","PERIOD":"95.592","EPHEMERIS_TYPE":"0","TLE_LINE1":"1 47674U 21012BG  21350.85618560 -.00000357  00000-0 -50433-5 0  9991","FILE":"3242223","LAUNCH_DATE":"2021-02-16","TIME_SYSTEM":"UTC","APOAPSIS":"548.702","RCS_SIZE":"LARGE","CENTER_NAME":"EARTH","ELEMENT_SET_NO":"999","REV_AT_EPOCH":"4757","MEAN_ANOMALY":"267.1170","INCLINATION":"53.0542","COUNTRY_CODE":"US","REF_FRAME":"TEME","TLE_LINE2":"2 47674  53.0542 142.1442 0002145  93.0064 267.1170 15.06398911 47571","OBJECT_ID":"2021-012BG","CLASSIFICATION_TYPE":"U","SEMIMAJOR_AXIS":"6925.352","RA_OF_ASC_NODE":"142.1442","NORAD_CAT_ID":"47674","MEAN_ELEMENT_THEORY":"SGP4","MEAN_MOTION_DOT":"-0.00000357","OBJECT_TYPE":"PAYLOAD","SITE":"AFETR","MEAN_MOTION":"15.06398911","DECAY_DATE":null,"MEAN_MOTION_DDOT":"0.0000000000000","OBJECT_NAME":"STARLINK-2067","BSTAR":"-0.00000504330000"},{"ECCENTRICITY":"0.00023610","GP_ID":"191860417","PERIAPSIS":"545.554","ARG_OF_PERICENTER":"93.3091","EPOCH":"2021-12-16T20:22:19.045056","PERIOD":"95.592","LAUNCH_DATE":"2021-02-16","TLE_LINE1":"1 47675U 21012BH  21350.84883154  .00001014  00000-0  86957-4 0  9992","FILE":"3242223","EPHEMERIS_TYPE":"0","CENTER_NAME":"EARTH","APOAPSIS":"548.825","RCS_SIZE":"LARGE","TIME_SYSTEM":"UTC","MEAN_ANOMALY":"266.8168","REV_AT_EPOCH":"4757","ELEMENT_SET_NO":"999","TLE_LINE2":"2 47675  53.0551 142.1858 0002361  93.3091 266.8168 15.06407865 47578","REF_FRAME":"TEME","CLASSIFICATION_TYPE":"U","OBJECT_ID":"2021-012BH","COUNTRY_CODE":"US","INCLINATION":"53.0551","MEAN_MOTION_DOT":"0.00001014","MEAN_ELEMENT_THEORY":"SGP4","NORAD_CAT_ID":"47675","OBJECT_TYPE":"PAYLOAD","RA_OF_ASC_NODE":"142.1858","SEMIMAJOR_AXIS":"6925.324","OBJECT_NAME":"STARLINK-2078","BSTAR":"0.00008695700000","DECAY_DATE":null,"SITE":"AFETR","MEAN_MOTION":"15.06407865","MEAN_MOTION_DDOT":"0.0000000000000"},{"MEAN_ANOMALY":"91.9036","REV_AT_EPOCH":"4858","ELEMENT_SET_NO":"999","REF_FRAME":"TEME","TLE_LINE2":"2 47676  53.0546  33.5075 0001764  39.1848  91.9036 15.40520476 48586","OBJECT_ID":"2021-012BJ","CLASSIFICATION_TYPE":"U","COUNTRY_CODE":"US","INCLINATION":"53.0546","MEAN_ELEMENT_THEORY":"SGP4","MEAN_MOTION_DOT":"-0.00914041","NORAD_CAT_ID":"47676","OBJECT_TYPE":"PAYLOAD","RA_OF_ASC_NODE":"33.5075","SEMIMAJOR_AXIS":"6822.709","OBJECT_NAME":"STARLINK-2083","BSTAR":"-0.02414800000000","DECAY_DATE":null,"MEAN_MOTION":"15.40520476","SITE":"AFETR","MEAN_MOTION_DDOT":"0.0000000000000","ECCENTRICITY":"0.00017640","GP_ID":"191835506","PERIAPSIS":"443.371","EPOCH":"2021-12-17T00:00:00.999648","ARG_OF_PERICENTER":"39.1848","PERIOD":"93.475","LAUNCH_DATE":"2021-02-16","TLE_LINE1":"1 47676U 21012BJ  21351.00001157 -.00914041  00000-0 -24148-1 0  9993","EPHEMERIS_TYPE":"0","FILE":"3242071","CENTER_NAME":"EARTH","RCS_SIZE":"LARGE","APOAPSIS":"445.778","TIME_SYSTEM":"UTC"}];
